{
  "type": "FeatureCollection",
  "features": [
    {
      "type": "Feature",
      "properties": {
        "norad_id": 38755,
        "name": "SPOT 6",
        "group": "resource",
        "lat": -81.67852562174846,
        "lon": 160.55124646501216,
        "alt_km": 706.1713952657456,
        "timestamp": "2025-12-20T14:38:01.615400+00:00",
        "meta_object_name": "SPOT 6",
        "meta_object_id": "2012-047A",
        "meta_epoch": "2025-12-20T06:49:16.155264",
        "meta_mean_motion": 14.58538177,
        "meta_eccentricity": 0.0001326,
        "meta_inclination": 98.157,
        "meta_ra_of_asc_node": 58.9303,
        "meta_arg_of_pericenter": 79.7465,
        "meta_mean_anomaly": 280.3884,
        "meta_ephemeris_type": 0,
        "meta_classification_type": "U",
        "meta_norad_cat_id": 38755,
        "meta_element_set_no": 999,
        "meta_rev_at_epoch": 70697,
        "meta_bstar": 4.1027468e-05,
        "meta_mean_motion_dot": 1.45e-06,
        "meta_mean_motion_ddot": 0,
        "tle_line1": "1 38755U 12047A   25354.28421476  .00000145  00000+0  41027-4 0  9992",
        "tle_line2": "2 38755  98.1570  58.9303 0001326  79.7465 280.3884 14.58538177706979"
      },
      "geometry": {
        "type": "Point",
        "coordinates": [
          160.55124646501216,
          -81.67852562174846
        ]
      }
    },
    {
      "type": "Feature",
      "properties": {
        "norad_id": 39019,
        "name": "PLEIADES 1B",
        "group": "resource",
        "lat": 13.28970006839293,
        "lon": -110.91552578954295,
        "alt_km": 698.8029184275256,
        "timestamp": "2025-12-20T14:38:01.615420+00:00",
        "meta_object_name": "PLEIADES 1B",
        "meta_object_id": "2012-068A",
        "meta_epoch": "2025-12-20T07:17:14.749152",
        "meta_mean_motion": 14.58559047,
        "meta_eccentricity": 0.00011736,
        "meta_inclination": 98.1793,
        "meta_ra_of_asc_node": 66.8364,
        "meta_arg_of_pericenter": 86.2016,
        "meta_mean_anomaly": 273.9318,
        "meta_ephemeris_type": 0,
        "meta_classification_type": "U",
        "meta_norad_cat_id": 39019,
        "meta_element_set_no": 999,
        "meta_rev_at_epoch": 69477,
        "meta_bstar": 5.3845844e-05,
        "meta_mean_motion_dot": 2.05e-06,
        "meta_mean_motion_ddot": 0,
        "tle_line1": "1 39019U 12068A   25354.30364293  .00000205  00000+0  53846-4 0  9994",
        "tle_line2": "2 39019  98.1793  66.8364 0001173  86.2016 273.9318 14.58559047694773"
      },
      "geometry": {
        "type": "Point",
        "coordinates": [
          -110.91552578954295,
          13.28970006839293
        ]
      }
    },
    {
      "type": "Feature",
      "properties": {
        "norad_id": 39030,
        "name": "GOKTURK 2",
        "group": "resource",
        "lat": 44.323717354586904,
        "lon": 23.457534467159174,
        "alt_km": 639.6850124582179,
        "timestamp": "2025-12-20T14:38:01.615432+00:00",
        "meta_object_name": "GOKTURK 2",
        "meta_object_id": "2012-073A",
        "meta_epoch": "2025-12-20T05:53:04.951680",
        "meta_mean_motion": 14.75298988,
        "meta_eccentricity": 0.0001269,
        "meta_inclination": 97.6887,
        "meta_ra_of_asc_node": 195.5292,
        "meta_arg_of_pericenter": 107.7326,
        "meta_mean_anomaly": 252.4023,
        "meta_ephemeris_type": 0,
        "meta_classification_type": "U",
        "meta_norad_cat_id": 39030,
        "meta_element_set_no": 999,
        "meta_rev_at_epoch": 69812,
        "meta_bstar": 8.37185e-07,
        "meta_mean_motion_dot": -4.1e-07,
        "meta_mean_motion_ddot": 0,
        "tle_line1": "1 39030U 12073A   25354.24519620 -.00000041  00000+0  83719-6 0  9995",
        "tle_line2": "2 39030  97.6887 195.5292 0001269 107.7326 252.4023 14.75298988698124"
      },
      "geometry": {
        "type": "Point",
        "coordinates": [
          23.457534467159174,
          44.323717354586904
        ]
      }
    },
    {
      "type": "Feature",
      "properties": {
        "norad_id": 39084,
        "name": "LANDSAT 8",
        "group": "resource",
        "lat": -63.189848698807694,
        "lon": 79.1589272644254,
        "alt_km": 710.394077945416,
        "timestamp": "2025-12-20T14:38:01.615442+00:00",
        "meta_object_name": "LANDSAT 8",
        "meta_object_id": "2013-008A",
        "meta_epoch": "2025-12-20T03:23:32.556192",
        "meta_mean_motion": 14.57109573,
        "meta_eccentricity": 0.00010827,
        "meta_inclination": 98.2063,
        "meta_ra_of_asc_node": 62.1053,
        "meta_arg_of_pericenter": 90.5011,
        "meta_mean_anomaly": 269.6312,
        "meta_ephemeris_type": 0,
        "meta_classification_type": "U",
        "meta_norad_cat_id": 39084,
        "meta_element_set_no": 999,
        "meta_rev_at_epoch": 67182,
        "meta_bstar": 7.4801417e-05,
        "meta_mean_motion_dot": 2.92e-06,
        "meta_mean_motion_ddot": 0,
        "tle_line1": "1 39084U 13008A   25354.14134903  .00000292  00000+0  74801-4 0  9996",
        "tle_line2": "2 39084  98.2063  62.1053 0001082  90.5011 269.6312 14.57109573671823"
      },
      "geometry": {
        "type": "Point",
        "coordinates": [
          79.1589272644254,
          -63.189848698807694
        ]
      }
    },
    {
      "type": "Feature",
      "properties": {
        "norad_id": 39086,
        "name": "SARAL",
        "group": "resource",
        "lat": -46.92641944323567,
        "lon": -172.30267499050296,
        "alt_km": 790.9297758001503,
        "timestamp": "2025-12-20T14:38:01.615453+00:00",
        "meta_object_name": "SARAL",
        "meta_object_id": "2013-009A",
        "meta_epoch": "2025-12-20T04:47:57.846048",
        "meta_mean_motion": 14.32759433,
        "meta_eccentricity": 0.00029585,
        "meta_inclination": 98.5502,
        "meta_ra_of_asc_node": 178.033,
        "meta_arg_of_pericenter": 94.5204,
        "meta_mean_anomaly": 265.6318,
        "meta_ephemeris_type": 0,
        "meta_classification_type": "U",
        "meta_norad_cat_id": 39086,
        "meta_element_set_no": 999,
        "meta_rev_at_epoch": 66997,
        "meta_bstar": 4.7774178e-05,
        "meta_mean_motion_dot": 8.6e-07,
        "meta_mean_motion_ddot": 0,
        "tle_line1": "1 39086U 13009A   25354.19997507  .00000086  00000+0  47774-4 0  9991",
        "tle_line2": "2 39086  98.5502 178.0330 0002958  94.5204 265.6318 14.32759433669976"
      },
      "geometry": {
        "type": "Point",
        "coordinates": [
          -172.30267499050296,
          -46.92641944323567
        ]
      }
    },
    {
      "type": "Feature",
      "properties": {
        "norad_id": 39150,
        "name": "GAOFEN-1",
        "group": "resource",
        "lat": -67.02113651914581,
        "lon": -134.0668675356789,
        "alt_km": 655.8041398297892,
        "timestamp": "2025-12-20T14:38:01.615464+00:00",
        "meta_object_name": "GAOFEN-1",
        "meta_object_id": "2013-018A",
        "meta_epoch": "2025-12-20T07:00:29.390976",
        "meta_mean_motion": 14.76491723,
        "meta_eccentricity": 0.00183699,
        "meta_inclination": 97.9325,
        "meta_ra_of_asc_node": 64.8183,
        "meta_arg_of_pericenter": 120.1536,
        "meta_mean_anomaly": 240.1497,
        "meta_ephemeris_type": 0,
        "meta_classification_type": "U",
        "meta_norad_cat_id": 39150,
        "meta_element_set_no": 999,
        "meta_rev_at_epoch": 68184,
        "meta_bstar": 6.3225137e-05,
        "meta_mean_motion_dot": 3.9e-06,
        "meta_mean_motion_ddot": 0,
        "tle_line1": "1 39150U 13018A   25354.29200684  .00000390  00000+0  63225-4 0  9994",
        "tle_line2": "2 39150  97.9325  64.8183 0018369 120.1536 240.1497 14.76491723681848"
      },
      "geometry": {
        "type": "Point",
        "coordinates": [
          -134.0668675356789,
          -67.02113651914581
        ]
      }
    },
    {
      "type": "Feature",
      "properties": {
        "norad_id": 39160,
        "name": "VNREDSAT 1",
        "group": "resource",
        "lat": -17.508712861809126,
        "lon": 52.13173528356359,
        "alt_km": 682.3699554000423,
        "timestamp": "2025-12-20T14:38:01.615474+00:00",
        "meta_object_name": "VNREDSAT 1",
        "meta_object_id": "2013-021B",
        "meta_epoch": "2025-12-20T06:31:04.454112",
        "meta_mean_motion": 14.64934154,
        "meta_eccentricity": 0.0001203,
        "meta_inclination": 97.9369,
        "meta_ra_of_asc_node": 49.283,
        "meta_arg_of_pericenter": 81.3542,
        "meta_mean_anomaly": 278.7798,
        "meta_ephemeris_type": 0,
        "meta_classification_type": "U",
        "meta_norad_cat_id": 39160,
        "meta_element_set_no": 999,
        "meta_rev_at_epoch": 67409,
        "meta_bstar": 0.00014107452,
        "meta_mean_motion_dot": 7.09e-06,
        "meta_mean_motion_ddot": 0,
        "tle_line1": "1 39160U 13021B   25354.27157933  .00000709  00000+0  14107-3 0  9993",
        "tle_line2": "2 39160  97.9369  49.2830 0001203  81.3542 278.7798 14.64934154674094"
      },
      "geometry": {
        "type": "Point",
        "coordinates": [
          52.13173528356359,
          -17.508712861809126
        ]
      }
    }
  ]
}